{"type": "FeatureCollection", "features": [ {"type": "Feature", "properties": {"norad_id": 40938, "name": "BEIDOU-3S IGSO-2S (C56)", "group": "gnss", "lat": 46.98716653609313, "lon": -32.94574437883142, "alt_km": 35887.950299428834, "timestamp": "2025-12-24T09:46:31.246614+00:00", "meta": {"OBJECT_NAME": "BEIDOU-3S IGSO-2S (C56)", "OBJECT_ID": "2015-053A", "EPOCH": "2025-12-23T17:00:29.513952", "MEAN_MOTION": 1.00267867, "ECCENTRICITY": 0.00606419, "INCLINATION": 49.4936, "RA_OF_ASC_NODE": 260.877, "ARG_OF_PERICENTER": 188.6586, "MEAN_ANOMALY": 353.8857, "EPHEMERIS_TYPE": 0, "CLASSIFICATION_TYPE": "U", "NORAD_CAT_ID": 40938, "ELEMENT_SET_NO": 999, "REV_AT_EPOCH": 3759, "BSTAR": 0, "MEAN_MOTION_DOT": -1.09e-06, "MEAN_MOTION_DDOT": 0}, "tle": {"line1": "1 40938U 15053A   25357.70867493 -.00000109  00000+0  00000+0 0  9993", "line2": "2 40938  49.4936 260.8770 0060641 188.6586 353.8857  1.00267867 37590"}}, "geometry": {"type": "Point", "coordinates": [-32.94574437883142, 46.98716653609313]}}, {"type": "Feature", "properties": {"norad_id": 41019, "name": "GPS BIIF-11 (PRN 10)", "group": "gnss", "lat": 56.77318550155553, "lon": 131.51345276237893, "alt_km": 20394.112721305584, "timestamp": "2025-12-24T09:46:31.246626+00:00", "meta": {"OBJECT_NAME": "GPS BIIF-11 (PRN 10)", "OBJECT_ID": "2015-062A", "EPOCH": "2025-12-23T06:43:12.895968", "MEAN_MOTION": 2.00567181, "ECCENTRICITY": 0.01110751, "INCLINATION": 56.8398, "RA_OF_ASC_NODE": 37.5947, "ARG_OF_PERICENTER": 230.2304, "MEAN_ANOMALY": 128.8517, "EPHEMERIS_TYPE": 0, "CLASSIFICATION_TYPE": "U", "NORAD_CAT_ID": 41019, "ELEMENT_SET_NO": 999, "REV_AT_EPOCH": 7430, "BSTAR": 0, "MEAN_MOTION_DOT": -4.8e-07, "MEAN_MOTION_DDOT": 0}, "tle": {"line1": "1 41019U 15062A   25357.28001037 -.00000048  00000+0  00000+0 0  9993", "line2": "2 41019  56.8398  37.5947 0111075 230.2304 128.8517  2.00567181 74306"}}, "geometry": {"type": "Point", "coordinates": [131.51345276237893, 56.77318550155553]}}, {"type": "Feature", "properties": {"norad_id": 41028, "name": "GSAT-15 (GAGAN/PRN 139)", "group": "gnss", "lat": 0.0006309837221436834, "lon": -26.654224713023325, "alt_km": 35786.673037842396, "timestamp": "2025-12-24T09:46:31.246639+00:00", "meta": {"OBJECT_NAME": "GSAT-15 (GAGAN/PRN 139)", "OBJECT_ID": "2015-065A", "EPOCH": "2025-12-24T01:38:38.621184", "MEAN_MOTION": 1.00271676, "ECCENTRICITY": 0.000236, "INCLINATION": 0.02, "RA_OF_ASC_NODE": 277.7383, "ARG_OF_PERICENTER": 322.3142, "MEAN_ANOMALY": 330.9697, "EPHEMERIS_TYPE": 0, "CLASSIFICATION_TYPE": "U", "NORAD_CAT_ID": 41028, "ELEMENT_SET_NO": 999, "REV_AT_EPOCH": 3704, "BSTAR": 0, "MEAN_MOTION_DOT": -2.37e-06, "MEAN_MOTION_DDOT": 0}, "tle": {"line1": "1 41028U 15065A   25358.06850256 -.00000237  00000+0  00000+0 0  9998", "line2": "2 41028   0.0200 277.7383 0002360 322.3142 330.9697  1.00271676 37045"}}, "geometry": {"type": "Point", "coordinates": [-26.654224713023325, 0.0006309837221436834]}}, {"type": "Feature", "properties": {"norad_id": 41174, "name": "GSAT0209 (GALILEO 12)", "group": "gnss", "lat": 53.08886095776834, "lon": -139.00044707149462, "alt_km": 23219.889861959808, "timestamp": "2025-12-24T09:46:31.246652+00:00", "meta": {"OBJECT_NAME": "GSAT0209 (GALILEO 12)", "OBJECT_ID": "2015-079A", "EPOCH": "2025-12-21T21:22:17.332896", "MEAN_MOTION": 1.70474556, "ECCENTRICITY": 0.00025231, "INCLINATION": 55.7178, "RA_OF_ASC_NODE": 106.13, "ARG_OF_PERICENTER": 342.7574, "MEAN_ANOMALY": 17.2091, "EPHEMERIS_TYPE": 0, "CLASSIFICATION_TYPE": "U", "NORAD_CAT_ID": 41174, "ELEMENT_SET_NO": 999, "REV_AT_EPOCH": 6175, "BSTAR": 0, "MEAN_MOTION_DOT": 5e-08, "MEAN_MOTION_DDOT": 0}, "tle": {"line1": "1 41174U 15079A   25355.89047839  .00000005  00000+0  00000+0 0  9990", "line2": "2 41174  55.7178 106.1300 0002523 342.7574  17.2091  1.70474556 61755"}}, "geometry": {"type": "Point", "coordinates": [-139.00044707149462, 53.08886095776834]}}, {"type": "Feature", "properties": {"norad_id": 41175, "name": "GSAT0208 (GALILEO 11)", "group": "gnss", "lat": -24.80908311639287, "lon": 87.70610926489795, "alt_km": 23220.32297064163, "timestamp": "2025-12-24T09:46:31.246663+00:00", "meta": {"OBJECT_NAME": "GSAT0208 (GALILEO 11)", "OBJECT_ID": "2015-079B", "EPOCH": "2025-12-23T06:48:42.697728", "MEAN_MOTION": 1.7047421, "ECCENTRICITY": 0.0001871, "INCLINATION": 55.7171, "RA_OF_ASC_NODE": 106.0888, "ARG_OF_PERICENTER": 351.9973, "MEAN_ANOMALY": 7.984, "EPHEMERIS_TYPE": 0, "CLASSIFICATION_TYPE": "U", "NORAD_CAT_ID": 41175, "ELEMENT_SET_NO": 999, "REV_AT_EPOCH": 6219, "BSTAR": 0, "MEAN_MOTION_DOT": 1.1e-07, "MEAN_MOTION_DDOT": 0}, "tle": {"line1": "1 41175U 15079B   25357.28382752  .00000011  00000+0  00000+0 0  9999", "line2": "2 41175  55.7171 106.0888 0001871 351.9973   7.9840  1.70474210 62193"}}, "geometry": {"type": "Point", "coordinates": [87.70610926489795, -24.80908311639287]}}, {"type": "Feature", "properties": {"norad_id": 41241, "name": "IRNSS-1E", "group": "gnss", "lat": -30.790259701382265, "lon": -4.910517879197146, "alt_km": 35807.108573557045, "timestamp": "2025-12-24T09:46:31.246675+00:00", "meta": {"OBJECT_NAME": "IRNSS-1E", "OBJECT_ID": "2016-003A", "EPOCH": "2025-12-23T15:49:14.018592", "MEAN_MOTION": 1.0026902, "ECCENTRICITY": 0.0021565, "INCLINATION": 32.8492, "RA_OF_ASC_NODE": 62.2938, "ARG_OF_PERICENTER": 188.8816, "MEAN_ANOMALY": 190.2765, "EPHEMERIS_TYPE": 0, "CLASSIFICATION_TYPE": "U", "NORAD_CAT_ID": 41241, "ELEMENT_SET_NO": 999, "REV_AT_EPOCH": 3632, "BSTAR": 0, "MEAN_MOTION_DOT": -2.93e-06, "MEAN_MOTION_DDOT": 0}, "tle": {"line1": "1 41241U 16003A   25357.65919003 -.00000293  00000+0  00000+0 0  9990", "line2": "2 41241  32.8492  62.2938 0021565 188.8816 190.2765  1.00269020 36325"}}, "geometry": {"type": "Point", "coordinates": [-4.910517879197146, -30.790259701382265]}}, {"type": "Feature", "properties": {"norad_id": 41328, "name": "GPS BIIF-12 (PRN 32)", "group": "gnss", "lat": 27.231770763945022, "lon": 117.16639678168713, "alt_km": 20391.751836558124, "timestamp": "2025-12-24T09:46:31.246688+00:00", "meta": {"OBJECT_NAME": "GPS BIIF-12 (PRN 32)", "OBJECT_ID": "2016-007A", "EPOCH": "2025-12-23T08:42:25.433568", "MEAN_MOTION": 2.00560186, "ECCENTRICITY": 0.0092686, "INCLINATION": 55.412, "RA_OF_ASC_NODE": 96.4354, "ARG_OF_PERICENTER": 243.8438, "MEAN_ANOMALY": 115.2096, "EPHEMERIS_TYPE": 0, "CLASSIFICATION_TYPE": "U", "NORAD_CAT_ID": 41328, "ELEMENT_SET_NO": 999, "REV_AT_EPOCH": 7231, "BSTAR": 0, "MEAN_MOTION_DOT": 8e-08, "MEAN_MOTION_DDOT": 0}, "tle": {"line1": "1 41328U 16007A   25357.36279437  .00000008  00000+0  00000+0 0  9991", "line2": "2 41328  55.4120  96.4354 0092686 243.8438 115.2096  2.00560186 72316"}}, "geometry": {"type": "Point", "coordinates": [117.16639678168713, 27.231770763945022]}}, {"type": "Feature", "properties": {"norad_id": 41330, "name": "COSMOS 2514 (751)", "group": "gnss", "lat": 52.00609940608227, "lon": 102.58611971795004, "alt_km": 19129.286165902548, "timestamp": "2025-12-24T09:46:31.246700+00:00", "meta": {"OBJECT_NAME": "COSMOS 2514 (751)", "OBJECT_ID": "2016-008A", "EPOCH": "2025-12-23T18:45:46.770048", "MEAN_MOTION": 2.13102642, "ECCENTRICITY": 0.0011634, "INCLINATION": 65.1274, "RA_OF_ASC_NODE": 319.026, "ARG_OF_PERICENTER": 220.0869, "MEAN_ANOMALY": 139.8272, "EPHEMERIS_TYPE": 0, "CLASSIFICATION_TYPE": "U", "NORAD_CAT_ID": 41330, "ELEMENT_SET_NO": 999, "REV_AT_EPOCH": 7688, "BSTAR": 0, "MEAN_MOTION_DOT": -3.5e-07, "MEAN_MOTION_DDOT": 0}, "tle": {"line1": "1 41330U 16008A   25357.78179132 -.00000035  00000+0  00000+0 0  9993", "line2": "2 41330  65.1274 319.0260 0011634 220.0869 139.8272  2.13102642 76883"}}, "geometry": {"type": "Point", "coordinates": [102.58611971795004, 52.00609940608227]}}, {"type": "Feature", "properties": {"norad_id": 41384, "name": "IRNSS-1F", "group": "gnss", "lat": 0.7224743672225197, "lon": -87.6895396426408, "alt_km": 35689.9024292906, "timestamp": "2025-12-24T09:46:31.246712+00:00", "meta": {"OBJECT_NAME": "IRNSS-1F", "OBJECT_ID": "2016-015A", "EPOCH": "2025-12-23T23:33:29.527200", "MEAN_MOTION": 1.00278072, "ECCENTRICITY": 0.0022662, "INCLINATION": 4.9093, "RA_OF_ASC_NODE": 101.0199, "ARG_OF_PERICENTER": 182.1245, "MEAN_ANOMALY": 195.4962, "EPHEMERIS_TYPE": 0, "CLASSIFICATION_TYPE": "U", "NORAD_CAT_ID": 41384, "ELEMENT_SET_NO": 999, "REV_AT_EPOCH": 3591, "BSTAR": 0, "MEAN_MOTION_DOT": 1.77e-06, "MEAN_MOTION_DDOT": 0}, "tle": {"line1": "1 41384U 16015A   25357.98159175  .00000177  00000+0  00000+0 0  9993", "line2": "2 41384   4.9093 101.0199 0022662 182.1245 195.4962  1.00278072 35910"}}, "geometry": {"type": "Point", "coordinates": [-87.6895396426408, 0.7224743672225197]}}, {"type": "Feature", "properties": {"norad_id": 41434, "name": "BEIDOU-2 IGSO-6 (C13)", "group": "gnss", "lat": -52.16092989545347, "lon": -8.261529166315189, "alt_km": 35671.7338223773, "timestamp": "2025-12-24T09:46:31.246723+00:00", "meta": {"OBJECT_NAME": "BEIDOU-2 IGSO-6 (C13)", "OBJECT_ID": "2016-021A", "EPOCH": "2025-12-18T14:33:38.837664", "MEAN_MOTION": 1.00292299, "ECCENTRICITY": 0.00610054, "INCLINATION": 59.9732, "RA_OF_ASC_NODE": 39.8392, "ARG_OF_PERICENTER": 230.2031, "MEAN_ANOMALY": 129.1398, "EPHEMERIS_TYPE": 0, "CLASSIFICATION_TYPE": "U", "NORAD_CAT_ID": 41434, "ELEMENT_SET_NO": 999, "REV_AT_EPOCH": 3566, "BSTAR": 0, "MEAN_MOTION_DOT": -1.41e-06, "MEAN_MOTION_DDOT": 0}, "tle": {"line1": "1 41434U 16021A   25352.60669951 -.00000141  00000+0  00000+0 0  9990", "line2": "2 41434  59.9732  39.8392 0061005 230.2031 129.1398  1.00292299 35667"}}, "geometry": {"type": "Point", "coordinates": [-8.261529166315189, -52.16092989545347]}}]}